[{"OBJECT_NAME":"STARLINK-31344","OBJECT_ID":"2024-044V","EPOCH":"2026-03-09T04:11:14.894016","MEAN_MOTION":15.27545255,"ECCENTRICITY":0.00011195,"INCLINATION":43.0007,"RA_OF_ASC_NODE":110.1981,"ARG_OF_PERICENTER":183.9546,"MEAN_ANOMALY":176.1297,"EPHEMERIS_TYPE":0,"CLASSIFICATION_TYPE":"U","NORAD_CAT_ID":59171,"ELEMENT_SET_NO":999,"REV_AT_EPOCH":11351,"BSTAR":0.00017849701,"MEAN_MOTION_DOT":4.648e-5,"MEAN_MOTION_DDOT":0},{"OBJECT_NAME":"SL-3 R\/B","OBJECT_ID":"1982-027B","EPOCH":"2026-03-09T22:44:40.208640","MEAN_MOTION":15.28335844,"ECCENTRICITY":0.00065199,"INCLINATION":81.188,"RA_OF_ASC_NODE":37.4466,"ARG_OF_PERICENTER":276.581,"MEAN_ANOMALY":83.4683,"EPHEMERIS_TYPE":0,"CLASSIFICATION_TYPE":"U","NORAD_CAT_ID":13121,"ELEMENT_SET_NO":999,"REV_AT_EPOCH":39859,"BSTAR":0.00030526741,"MEAN_MOTION_DOT":8.453e-5,"MEAN_MOTION_DDOT":0}]
